ONEWEB-0461             
1 51649U 22012AD  24352.41271861  .00000128  00000+0  29761-3 0  9996
2 51649  87.9096 114.7826 0001618 103.6921 256.4391 13.17652414141889
ONEWEB-0463             
1 51650U 22012AE  24352.39416574  .00000090  00000+0  19956-3 0  9990
2 51650  87.9101 114.8412 0001627  99.4423 260.6892 13.17646582141667
ONEWEB-0464             
1 51651U 22012AF  24352.46591976 -.00000543  00000+0 -15912-2 0  9991
2 51651  87.8902 145.1736 0001082  92.5619 267.5633 13.10372206137721
ONEWEB-0468             
1 51652U 22012AG  24352.47256324 -.00000587  00000+0 -17168-2 0  9991
2 51652  87.8904 145.1647 0001390  95.3918 264.7368 13.10374906137701
ONEWEB-0473             
1 51653U 22012AH  24352.45762601 -.00000572  00000+0 -16742-2 0  9991
2 51653  87.8894 145.1710 0001445  90.8760 269.2533 13.10371486137701
ONEWEB-0474             
1 51654U 22012AJ  24352.60204897 -.00000324  00000+0 -96521-3 0  9996
2 51654  87.8884 145.1223 0001266  88.6132 271.5140 13.10369814137712
ONEWEB-0475             
1 51655U 22012AK  24352.40598575  .00000070  00000+0  14654-3 0  9997
2 51655  87.9099 114.8185 0001496  69.4995 290.6296 13.17650490141686
ONEWEB-0490             
1 54113U 22138A   24352.57131136  .00000064  00000+0  12752-3 0  9992
2 54113  87.9176  53.6480 0001621 100.0273 260.1043 13.19728873104733
